IRIDIUM 150             
1 43257U 18030J   23337.48267997  .00000709  00000+0  24602-3 0  9995
2 43257  86.3964 317.7682 0003344  79.4167 280.7405 14.34206479297353
IRIDIUM 143             
1 43258U 18030K   23337.04500598  .00000496  00000+0  16989-3 0  9997
2 43258  86.3946 318.0070 0002585  88.2053 271.9439 14.34216352297234
IRIDIUM 161             
1 43478U 18047C   23336.93828690  .00000842  00000+0  24458-3 0  9997
2 43478  86.4484 116.0304 0002631  79.3415 280.8082 14.43246166291397
IRIDIUM 152             
1 43479U 18047D   23337.43633648  .00000644  00000+0  22295-3 0  9998
2 43479  86.3935 115.6776 0001833  85.4551 274.6854 14.34205009289664
IRIDIUM 147             
1 43480U 18047E   23336.88456128  .00000452  00000+0  15426-3 0  9999
2 43480  86.3953 115.9007 0001898  99.7652 260.3758 14.34217844289572
IRIDIUM 110             
1 43481U 18047F   23336.89089123  .00000586  00000+0  20225-3 0  9999
2 43481  86.3954 115.9656 0001961 105.2885 254.8528 14.34213400289562
IRIDIUM 162             
1 43482U 18047G   23337.48664599  .00000893  00000+0  25954-3 0  9997
2 43482  86.4477 115.7036 0002101  94.9226 265.2214 14.43251214291469
IRIDIUM 160             
1 43569U 18061A   23336.83674209  .00000732  00000+0  25450-3 0  9999
2 43569  86.3966  84.3447 0001615  90.7677 269.3703 14.34214538280450
